#dP2020  4 19  0  0  0.00000000      96 __u+U ITR00 FIT  IAC
## 2102      0.00000000   900.00000000 58958 0.0000000000000
+  119   C01C02C03C04C05C06C07C08C09C10C11C12C13C14C16C19C20
+        C21C22C23C24C25C26C27C28C29C30C32C33C34C35C36C37C45
+        C46C60E01E02E03E04E05E07E08E09E11E12E13E14E15E18E19
+        E21E24E25E26E27E30E31E33E36G01G02G03G04G05G06G07G08
+        G09G10G11G12G13G14G15G16G17G18G19G20G21G22G23G24G25
+        G26G27G28G29G30G31G32J01J02J03J07R01R02R03R04R05R07
+        R08R09R11R12R13R14R15R16R17R18R19R20R21R22R23R24R26
++        13 13 13 13 13  8  8  8  8  8  8  8  8  7  8  8  8
++         8  8  7  8  7  8  8  8  8  8  8  8  7  8  8  8  0
++        10 16  5  5  4  5  5  4  4  5  5  4  5  4  4  5  5
++         5  4  5  4  4  4  5  4  5  3  3  3  3  4  3  4  3
++         3  3  4  3  4  3  4  4  3  3  3  4  4  3  4  4  3
++         3  4  4  4  3  3  3  8  8  8 14  6  5  5  6  5  6
++         6  6  5  5  6  5  5  6  5  5  6  6  5  5  6  5  8
%c M  cc GPS ccc cccc cccc cccc cccc ccccc ccccc ccccc ccccc
%c cc cc ccc ccc cccc cccc cccc cccc ccccc ccccc ccccc ccccc
%f  0.0000000  0.000000000  0.00000000000  0.000000000000000
%f  0.0000000  0.000000000  0.00000000000  0.000000000000000
%i    0    0    0    0      0      0      0      0         0
%i    0    0    0    0      0      0      0      0         0
/* INFORMATION & ANALYSIS CENTER (IAC)            RAPID DATA
/* S/V CLOCKS ARE ALIGNED TO GNSS TIME                      
/* G:C1WC2W R:C1PC2P E:C1XC5X C:C2IC6I J:C1CC2S             
/* PCV:IGS14_2101 OL/AL:FES2004  NONE     YN ORB:CoN CLK:CoN
*  2020 04 19  4 30  0.00000000
PC01 -34289.816660  24566.930693    682.991011   -590.799516
PC02   4383.194938  41900.721471  -1300.279437    406.576239
PC03 -14711.143334  39479.077811   -597.544775    429.246882
PC04 -39615.729688  14436.305548    306.708756   -148.731460
PC05  21888.586712  35994.475636   -988.632032      0.729899
PC06 -11345.872872  36389.521412 -17149.847804    138.673823
PC07 -14100.853383  22401.134388  32973.678367    851.982204
PC08 -26568.579493  28693.203858 -16083.014817   -208.776581
PC09  -2081.992560  41840.297375  -2104.564701    482.469279
PC10   2260.086472  28196.394247  31535.304085   -871.163815
PC11  16329.486642  -9210.429275 -20598.273499   -312.159619
PC12  12048.662933  11941.989047 -22129.875866    353.299383
PC13 -13100.837638  29871.401966 -26765.810706    389.660787
PC14  20467.073088    953.961312  19006.170535    313.339764
PC16  -8527.262509  38535.344470 -14482.687686   -674.623634
PC19 -14509.378068   7843.333563 -22475.802630    386.740924
PC20 -22916.509593  -8883.409203 -13164.014890   -905.057000
PC21  17950.866087  20941.823275  -4293.098680   -301.542999
PC22   2498.040138  20388.281973 -18892.471524   -830.852285
PC23   7764.509030 -17341.719570 -20439.163871   -905.834142
PC24  25925.244038    161.794318  10287.437063   -852.451011
PC25  23450.625354 -13056.330238  -7612.282732   -588.008608
PC26  13652.937661  11594.496909  21384.484226    649.403445
PC27  -7056.392797 -20673.312932  17363.291425    315.410403
PC28   5848.504623 -27235.914703   1637.617723    306.427142
PC29 -14619.563044  18447.052026  14979.080446    216.905581
PC30 -15836.191815  -1783.799802  22904.864602    304.261904
PC32 -18069.408474 -20817.674459   4329.947857   -914.655741
PC33  14574.542282  -7875.823117  22472.091565   -864.430590
PC34  15982.129961   1269.103289 -22848.333174   -645.414655
PC35  -5017.087035  27390.423784  -1479.133978   -884.723435
PC36 -23873.133783  12405.598568   7421.698466   -822.883176
PC37 -12776.201765 -12215.118166 -21581.929992   -844.159696
PC45      0.000000      0.000000      0.000000 999999.999999
PC46 -26087.975801    302.617293  -9941.160460 999999.999999
PC60   7332.954081  41500.857399   1056.551098     -2.272323
PE01 -25147.694075   5994.752322  14415.042029   -838.945957
PE02  25081.436830  -6060.686114 -14497.548996    127.456688
PE03  14684.695110  -9176.986813  24010.641061   -289.484883
PE04  -1641.706498  25277.388664 -15305.177312   -508.438341
PE05  19247.708671  12472.897304  18720.025586   -387.405298
PE07 -12528.026756 -26693.055531  -2518.228134   -370.161240
PE08   1253.250363 -25343.953054  15237.733228   6190.295461
PE09  12762.823314  26586.972795   2640.789431   6088.368419
PE11   4147.723560  18829.340965 -22454.928020   2350.950227
PE12 -12856.718060  25375.556484  -8131.177672   5847.058033
PE13  -3924.868320 -18969.523673  22392.062608    400.179654
PE14  20014.320301  -6015.832999 -24670.366009   -982.976764
PE15  12631.209436 -25446.026691   8343.372929    869.973476
PE18 -12944.231378  12226.631313  16113.625723  -1081.586677
PE19 -15528.874628   6901.037605 -24227.290881   -808.155111
PE21 -28603.453384  -6655.240901  -3720.961381   -594.302310
PE24  15075.279522  15793.015007  19960.562057   5499.814688
PE25  28569.679448   6724.047143   3830.699300   -509.283530
PE26 -18499.457433  -1194.256867  23081.272760   3285.928527
PE27 -15355.149331 -15640.266618 -19899.165205    237.846249
PE30   7247.614545 -15348.619956 -24261.488339   3974.641102
PE31  -6859.408809  15405.104865  24328.412483   -472.324591
PE33 -21790.500178  16967.589843  10640.085747   -468.244120
PE36  18198.661561   1337.490692 -23302.321056    571.088145
PG01 -10272.956113  19521.356738 -14753.701096   -361.401165
PG02  21970.838755 -13712.833143  -5092.410745   -441.898458
PG03    627.294563  16261.259775 -21064.932579   -149.966110
PG04   -690.780256  26277.879059  -3681.282975    -78.111424
PG05  19818.351536  -4931.641367  16950.845107    -11.115419
PG06  21918.025455  -3941.977910 -14458.653035   -255.529179
PG07   7824.638908  13428.899541  21815.570648   -261.934032
PG08  -7385.934597  20979.866294  14338.058870    -31.132703
PG09   7821.507432  24422.398682   6832.786928   -200.690199
PG10 -23990.738812 -11628.651000   1322.751236   -314.804624
PG11 -11764.284957  23996.118769   -766.595052   -301.115962
PG12   1947.670285 -15525.835144 -21721.353404    127.605907
PG13  12893.659398 -14128.242518  18271.290114      3.284189
PG14 -15058.353951  -1628.391320 -21484.193917    -18.645897
PG15   5403.675716 -22056.240718  13151.660897   -236.993945
PG16 -19253.811898   3141.070293  18014.911832   -148.281328
PG17  13240.213274  12349.001587 -19030.151518    251.104604
PG18  -3691.442361 -15435.113278  21297.924639    161.422096
PG19  14748.240819   3566.250529 -22099.403331   -170.125509
PG20 -18425.452409 -14856.164121  12183.531817    527.803422
PG21  -8473.243199 -13399.057788  22109.964834    -12.311547
PG22  -8924.754292  13393.323494 -20891.205310   -784.460272
PG23   5129.773226  25762.450734   2495.782980   -120.960600
PG24  10705.626361 -20730.181397 -12541.867360    -11.905580
PG25  -9820.033376 -17707.756726 -17565.026264     -2.173254
PG26 -24843.573275  -2955.831442   9205.566198    190.305417
PG27 -12646.636404  10967.222524  20397.413099   -270.842244
PG28  22989.275754  13135.941520    271.023722    724.256178
PG29  -3998.530968 -25822.135380   4659.221002    -84.495514
PG30  17503.748818   5294.752074  19365.673134   -201.601348
PG31 -22960.339852   4696.267847 -12958.894967    -36.956261
PG32 -14820.330345 -10748.182173 -19215.832565    262.787713
PJ01 -21171.604385  20088.114790 -25841.229864   -320.584274
PJ02 -30186.672943  23758.276799  22230.490488     -2.450554
PJ03 -28569.714782  26158.134722  21657.019666     -2.121651
PJ07 -25358.859105  33676.719438    -56.485056      0.011407
PR01 -17328.641028 -17345.965046  -7000.150973     60.241366
PR02 -13062.891364   -437.242117 -21871.171975    422.530161
PR03  -1259.402759  14949.723233 -20569.869888     13.552708
PR04  11275.650386  21569.931680  -7600.680118     46.099487
PR05  17263.279392  16068.549775   9709.091764     48.907870
PR07    821.858855 -15402.932109  20369.021045    -35.615126
PR08 -11145.071096 -21636.516304   7717.028980    -51.726004
PR09  23351.463182  -6525.667140  -8023.308260    128.051493
PR11  -6823.593079 -10165.704047 -22361.814580    -20.674038
PR12 -21637.406728  -3840.853271 -12949.808241    123.769761
PR13 -24620.926162   5001.192058   4388.907439    -37.591448
PR14 -13049.661426  10638.192448  19164.018463     50.320587
PR15   5858.964114  10212.132491  22642.877259    106.355573
PR16  21914.325436   3302.375262  12491.037768     -2.905066
PR17 -11468.584211  22661.858399   2538.101103    318.410586
PR18  -2732.137215  21164.810810 -13911.064842     32.515713
PR19   6985.836062   8950.060611 -22840.983747    -89.363589
PR20  14227.402877 -10728.789619 -18268.485510   -409.509633
PR21  11143.048978 -22879.536735  -1595.023249   -118.948725
PR22   1289.128853 -19912.479820  15974.978036      2.791800
PR23 -10432.955970  -2150.535226  23169.267658    300.117305
PR24 -14570.737412  11263.181556  17668.110145     -5.205510
PR26  13245.047724  -6596.684508 -20759.779248   -399.006209
EOF
